start=new Date('2023-01-11T00:00:00.000Z').valueOf();
sats=[{"EPOCH":"2023-01-10T18:36:11.100672","RCS_SIZE":"LARGE","MEAN_ANOMALY":"297.6869","TLE_LINE2":"2 48594  53.0517 251.8354 0001728  62.4295 297.6869 15.06398965 91567","REF_FRAME":"TEME","MEAN_MOTION":"15.06398965","SITE":"AFETR","MEAN_MOTION_DOT":"0.00000701","EPHEMERIS_TYPE":"0","NORAD_CAT_ID":"48594","MEAN_ELEMENT_THEORY":"SGP4","REV_AT_EPOCH":"9156","MEAN_MOTION_DDOT":"0.0000000000000","CENTER_NAME":"EARTH","ECCENTRICITY":"0.00017280","INCLINATION":"53.0517","RA_OF_ASC_NODE":"251.8354","DECAY_DATE":null,"BSTAR":"0.00006594400000","ELEMENT_SET_NO":"999","OBJECT_TYPE":"PAYLOAD","TIME_SYSTEM":"UTC","GP_ID":"222720923","PERIOD":"95.592","PERIAPSIS":"546.020","FILE":"3739267","APOAPSIS":"548.413","OBJECT_NAME":"STARLINK-2251","OBJECT_ID":"2021-041AT","SEMIMAJOR_AXIS":"6925.352","ARG_OF_PERICENTER":"62.4295","TLE_LINE1":"1 48594U 21041AT  23010.77512848  .00000701  00000-0  65944-4 0  9996","LAUNCH_DATE":"2021-05-15","COUNTRY_CODE":"US","CLASSIFICATION_TYPE":"U"},{"TLE_LINE2":"2 48595  53.0528 283.1563 0001940  62.0570 298.0616 15.06374995 92369","REF_FRAME":"TEME","RCS_SIZE":"LARGE","EPOCH":"2023-01-10T11:06:21.380544","MEAN_ANOMALY":"298.0616","REV_AT_EPOCH":"9236","NORAD_CAT_ID":"48595","MEAN_ELEMENT_THEORY":"SGP4","SITE":"AFETR","EPHEMERIS_TYPE":"0","MEAN_MOTION_DOT":"0.00000585","MEAN_MOTION":"15.06374995","RA_OF_ASC_NODE":"283.1563","ECCENTRICITY":"0.00019400","INCLINATION":"53.0528","MEAN_MOTION_DDOT":"0.0000000000000","CENTER_NAME":"EARTH","BSTAR":"0.00005821600000","DECAY_DATE":null,"TIME_SYSTEM":"UTC","ELEMENT_SET_NO":"999","OBJECT_TYPE":"PAYLOAD","FILE":"3739038","PERIAPSIS":"545.947","PERIOD":"95.594","GP_ID":"222662192","APOAPSIS":"548.634","OBJECT_NAME":"STARLINK-2252","SEMIMAJOR_AXIS":"6925.425","OBJECT_ID":"2021-041AU","LAUNCH_DATE":"2021-05-15","COUNTRY_CODE":"US","CLASSIFICATION_TYPE":"U","ARG_OF_PERICENTER":"62.0570","TLE_LINE1":"1 48595U 21041AU  23010.46274746  .00000585  00000-0  58216-4 0  9999"},{"APOAPSIS":"548.277","OBJECT_NAME":"STARLINK-2253","OBJECT_ID":"2021-041AV","SEMIMAJOR_AXIS":"6925.375","ARG_OF_PERICENTER":"72.8395","TLE_LINE1":"1 48596U 21041AV  23010.48482814  .00002357  00000-0  17710-3 0  9991","LAUNCH_DATE":"2021-05-15","CLASSIFICATION_TYPE":"U","COUNTRY_CODE":"US","OBJECT_TYPE":"PAYLOAD","ELEMENT_SET_NO":"999","TIME_SYSTEM":"UTC","PERIOD":"95.593","GP_ID":"222662438","FILE":"3739038","PERIAPSIS":"546.203","MEAN_MOTION_DDOT":"0.0000000000000","CENTER_NAME":"EARTH","RA_OF_ASC_NODE":"283.0554","ECCENTRICITY":"0.00014970","INCLINATION":"53.0555","BSTAR":"0.00017710000000","DECAY_DATE":null,"TLE_LINE2":"2 48596  53.0555 283.0554 0001497  72.8395 287.2758 15.06391416 91554","REF_FRAME":"TEME","RCS_SIZE":"LARGE","EPOCH":"2023-01-10T11:38:09.151296","MEAN_ANOMALY":"287.2758","SITE":"AFETR","MEAN_MOTION_DOT":"0.00002357","EPHEMERIS_TYPE":"0","MEAN_MOTION":"15.06391416","REV_AT_EPOCH":"9155","MEAN_ELEMENT_THEORY":"SGP4","NORAD_CAT_ID":"48596"},{"REV_AT_EPOCH":"9236","MEAN_ELEMENT_THEORY":"SGP4","NORAD_CAT_ID":"48597","EPHEMERIS_TYPE":"0","MEAN_MOTION_DOT":"0.00002071","SITE":"AFETR","MEAN_MOTION":"15.06403765","TLE_LINE2":"2 48597  53.0498 283.0104 0001717  59.6420 300.4739 15.06403765 92367","REF_FRAME":"TEME","MEAN_ANOMALY":"300.4739","RCS_SIZE":"LARGE","EPOCH":"2023-01-10T11:48:47.863296","BSTAR":"0.00015790000000","DECAY_DATE":null,"RA_OF_ASC_NODE":"283.0104","INCLINATION":"53.0498","ECCENTRICITY":"0.00017170","CENTER_NAME":"EARTH","MEAN_MOTION_DDOT":"0.0000000000000","PERIAPSIS":"546.013","FILE":"3739212","PERIOD":"95.592","GP_ID":"222697543","TIME_SYSTEM":"UTC","OBJECT_TYPE":"PAYLOAD","ELEMENT_SET_NO":"999","COUNTRY_CODE":"US","CLASSIFICATION_TYPE":"U","LAUNCH_DATE":"2021-05-15","TLE_LINE1":"1 48597U 21041AW  23010.49222064  .00002071  00000-0  15790-3 0  9991","ARG_OF_PERICENTER":"59.6420","OBJECT_ID":"2021-041AW","SEMIMAJOR_AXIS":"6925.337","APOAPSIS":"548.391","OBJECT_NAME":"STARLINK-2255"},{"TLE_LINE2":"2 48598  53.0532 281.2234 0001468  70.8353 289.2795 15.06393910 91617","REF_FRAME":"TEME","RCS_SIZE":"LARGE","EPOCH":"2023-01-10T21:27:20.577888","MEAN_ANOMALY":"289.2795","REV_AT_EPOCH":"9161","NORAD_CAT_ID":"48598","MEAN_ELEMENT_THEORY":"SGP4","SITE":"AFETR","MEAN_MOTION_DOT":"-0.00000896","EPHEMERIS_TYPE":"0","MEAN_MOTION":"15.06393910","RA_OF_ASC_NODE":"281.2234","ECCENTRICITY":"0.00014680","INCLINATION":"53.0532","MEAN_MOTION_DDOT":"0.0000000000000","CENTER_NAME":"EARTH","BSTAR":"-0.00004129100000","DECAY_DATE":null,"TIME_SYSTEM":"UTC","OBJECT_TYPE":"PAYLOAD","ELEMENT_SET_NO":"999","PERIAPSIS":"546.216","FILE":"3739267","PERIOD":"95.593","GP_ID":"222720424","OBJECT_NAME":"STARLINK-2256","APOAPSIS":"548.249","SEMIMAJOR_AXIS":"6925.367","OBJECT_ID":"2021-041AX","LAUNCH_DATE":"2021-05-15","COUNTRY_CODE":"US","CLASSIFICATION_TYPE":"U","ARG_OF_PERICENTER":"70.8353","TLE_LINE1":"1 48598U 21041AX  23010.89398817 -.00000896  00000-0 -41291-4 0  9997"},{"NORAD_CAT_ID":"48599","MEAN_ELEMENT_THEORY":"SGP4","REV_AT_EPOCH":"9270","MEAN_MOTION":"15.06401816","EPHEMERIS_TYPE":"0","MEAN_MOTION_DOT":"0.00000539","SITE":"AFETR","MEAN_ANOMALY":"296.2728","RCS_SIZE":"LARGE","EPOCH":"2023-01-10T09:20:50.605440","TLE_LINE2":"2 48599  53.0530 258.4892 0001499  63.8415 296.2728 15.06401816 92707","REF_FRAME":"TEME","DECAY_DATE":null,"BSTAR":"0.00005506400000","INCLINATION":"53.0530","ECCENTRICITY":"0.00014990","RA_OF_ASC_NODE":"258.4892","CENTER_NAME":"EARTH","MEAN_MOTION_DDOT":"0.0000000000000","FILE":"3739038","PERIAPSIS":"546.170","GP_ID":"222661692","PERIOD":"95.592","TIME_SYSTEM":"UTC","ELEMENT_SET_NO":"999","OBJECT_TYPE":"PAYLOAD","COUNTRY_CODE":"US","CLASSIFICATION_TYPE":"U","LAUNCH_DATE":"2021-05-15","TLE_LINE1":"1 48599U 21041AY  23010.38947460  .00000539  00000-0  55064-4 0  9991","ARG_OF_PERICENTER":"63.8415","OBJECT_ID":"2021-041AY","SEMIMAJOR_AXIS":"6925.343","OBJECT_NAME":"STARLINK-2274","APOAPSIS":"548.246"},{"DECAY_DATE":null,"BSTAR":"0.00049745000000","MEAN_MOTION_DDOT":"0.0000000000000","CENTER_NAME":"EARTH","ECCENTRICITY":"0.00016540","INCLINATION":"53.0532","RA_OF_ASC_NODE":"274.8054","MEAN_MOTION":"15.06406441","SITE":"AFETR","MEAN_MOTION_DOT":"0.00007137","EPHEMERIS_TYPE":"0","NORAD_CAT_ID":"48600","MEAN_ELEMENT_THEORY":"SGP4","REV_AT_EPOCH":"9244","RCS_SIZE":"LARGE","EPOCH":"2023-01-10T02:16:54.043680","MEAN_ANOMALY":"283.4269","REF_FRAME":"TEME","TLE_LINE2":"2 48600  53.0532 274.8054 0001654  76.6904 283.4269 15.06406441 92440","ARG_OF_PERICENTER":"76.6904","TLE_LINE1":"1 48600U 21041AZ  23010.09506995  .00007137  00000-0  49745-3 0  9995","LAUNCH_DATE":"2021-05-15","COUNTRY_CODE":"US","CLASSIFICATION_TYPE":"U","OBJECT_NAME":"STARLINK-2275","APOAPSIS":"548.339","OBJECT_ID":"2021-041AZ","SEMIMAJOR_AXIS":"6925.329","GP_ID":"222662939","PERIOD":"95.592","FILE":"3739038","PERIAPSIS":"546.048","ELEMENT_SET_NO":"999","OBJECT_TYPE":"PAYLOAD","TIME_SYSTEM":"UTC"},{"DECAY_DATE":null,"BSTAR":"0.00009911500000","MEAN_MOTION_DDOT":"0.0000000000000","CENTER_NAME":"EARTH","ECCENTRICITY":"0.00014430","INCLINATION":"53.0534","RA_OF_ASC_NODE":"258.3295","MEAN_MOTION":"15.06395906","SITE":"AFETR","MEAN_MOTION_DOT":"0.00001195","EPHEMERIS_TYPE":"0","MEAN_ELEMENT_THEORY":"SGP4","NORAD_CAT_ID":"48602","REV_AT_EPOCH":"9270","EPOCH":"2023-01-10T10:08:37.055040","RCS_SIZE":"LARGE","MEAN_ANOMALY":"282.2124","TLE_LINE2":"2 48602  53.0534 258.3295 0001443  77.9027 282.2124 15.06395906 92703","REF_FRAME":"TEME","ARG_OF_PERICENTER":"77.9027","TLE_LINE1":"1 48602U 21041BB  23010.42265110  .00001195  00000-0  99115-4 0  9990","LAUNCH_DATE":"2021-05-15","COUNTRY_CODE":"US","CLASSIFICATION_TYPE":"U","OBJECT_NAME":"STARLINK-2713","APOAPSIS":"548.225","SEMIMAJOR_AXIS":"6925.361","OBJECT_ID":"2021-041BB","GP_ID":"222697223","PERIOD":"95.592","FILE":"3739212","PERIAPSIS":"546.227","ELEMENT_SET_NO":"999","OBJECT_TYPE":"PAYLOAD","TIME_SYSTEM":"UTC"},{"COUNTRY_CODE":"US","CLASSIFICATION_TYPE":"U","LAUNCH_DATE":"2021-05-15","TLE_LINE1":"1 48603U 21041BC  23010.40189297  .00003479  00000-0  25236-3 0  9999","ARG_OF_PERICENTER":"56.9226","OBJECT_ID":"2021-041BC","SEMIMAJOR_AXIS":"6925.345","OBJECT_NAME":"STARLINK-2714","APOAPSIS":"548.401","PERIAPSIS":"546.020","FILE":"3739038","PERIOD":"95.592","GP_ID":"222661943","TIME_SYSTEM":"UTC","OBJECT_TYPE":"PAYLOAD","ELEMENT_SET_NO":"999","BSTAR":"0.00025236000000","DECAY_DATE":null,"RA_OF_ASC_NODE":"253.4162","INCLINATION":"53.0543","ECCENTRICITY":"0.00017190","CENTER_NAME":"EARTH","MEAN_MOTION_DDOT":"0.0000000000000","REV_AT_EPOCH":"9277","NORAD_CAT_ID":"48603","MEAN_ELEMENT_THEORY":"SGP4","MEAN_MOTION_DOT":"0.00003479","EPHEMERIS_TYPE":"0","SITE":"AFETR","MEAN_MOTION":"15.06401086","TLE_LINE2":"2 48603  53.0543 253.4162 0001719  56.9226 303.1928 15.06401086 92776","REF_FRAME":"TEME","MEAN_ANOMALY":"303.1928","RCS_SIZE":"LARGE","EPOCH":"2023-01-10T09:38:43.552608"},{"DECAY_DATE":null,"BSTAR":"0.00007345800000","ECCENTRICITY":"0.00016500","INCLINATION":"53.0512","RA_OF_ASC_NODE":"281.9293","MEAN_MOTION_DDOT":"0.0000000000000","CENTER_NAME":"EARTH","NORAD_CAT_ID":"48604","MEAN_ELEMENT_THEORY":"SGP4","REV_AT_EPOCH":"9240","MEAN_MOTION":"15.06396539","SITE":"AFETR","EPHEMERIS_TYPE":"0","MEAN_MOTION_DOT":"0.00000813","EPOCH":"2023-01-10T17:39:06.285888","RCS_SIZE":"LARGE","MEAN_ANOMALY":"298.9597","REF_FRAME":"TEME","TLE_LINE2":"2 48604  53.0512 281.9293 0001650  61.1557 298.9597 15.06396539 92402","LAUNCH_DATE":"2021-05-15","CLASSIFICATION_TYPE":"U","COUNTRY_CODE":"US","ARG_OF_PERICENTER":"61.1557","TLE_LINE1":"1 48604U 21041BD  23010.73548942  .00000813  00000-0  73458-4 0  9991","OBJECT_NAME":"STARLINK-2757","APOAPSIS":"548.367","OBJECT_ID":"2021-041BD","SEMIMAJOR_AXIS":"6925.359","FILE":"3739267","PERIAPSIS":"546.081","GP_ID":"222719179","PERIOD":"95.592","TIME_SYSTEM":"UTC","ELEMENT_SET_NO":"999","OBJECT_TYPE":"PAYLOAD"}];
